1 45746U 20038S   23026.10263980  .00023857  00000-0  16130-2 0  9999
2 45746  53.0530 307.9368 0001203  98.9776 261.1349 15.06447547145506
1 45746U 20038S   23027.03150170  .00027009  00000-0  18247-2 0  9992
2 45746  53.0545 303.7658 0001903  89.0746 271.0461 15.06409234145644
1 45746U 20038S   23027.23054240  .00026806  00000-0  18115-2 0  9993
2 45746  53.0531 302.8723 0001329  75.5950 284.5186 15.06403436144742
1 45746U 20038S   23027.23054240  .00026806  00000-0  18115-2 0  9993
2 45746  53.0531 302.8723 0001329  75.5950 284.5186 15.06403436145675
1 45746U 20038S   23027.89401920  .00017872  00000-0  12158-2 0  9990
2 45746  53.0542 299.8977 0001348  52.6082 307.5030 15.06395025144842
1 45746U 20038S   23028.02671131  .00023832  00000-0  16133-2 0  9999
2 45746  53.0526 299.2983 0001195  85.6376 274.4750 15.06402315145794
1 45746U 20038S   23028.15940423  .00024288  00000-0  16435-2 0  9997
2 45746  53.0529 298.7031 0001215  84.8780 275.2348 15.06407193144888
1 45746U 20038S   23028.75652864  .00021656  00000-0  14682-2 0  9990
2 45746  53.0528 296.0223 0001361  88.3767 271.7377 15.06402646145902
1 45746U 20038S   23028.88922093  .00009544  00000-0  65868-3 0  9993
2 45746  53.0526 295.4244 0001333  93.1689 266.9453 15.06403113144991
1 45746U 20038S   23029.08826011  .00008922  00000-0  61699-3 0  9996
2 45746  53.0533 294.5317 0001298  91.0293 269.0845 15.06407317145954
1 45746U 20038S   23029.75173070  .00001882  00000-0  14516-3 0  9994
2 45746  53.0538 291.5581 0001549  92.7297 267.3869 15.06404704146056
1 45746U 20038S   23029.88442286  .00001915  00000-0  14739-3 0  9990
2 45746  53.0538 290.9610 0001386  91.3939 268.7208 15.06400902145146
1 45746U 20038S   23030.08346157  .00002544  00000-0  18959-3 0  9991
2 45746  53.0542 290.0667 0001386  93.1039 267.0108 15.06404219145174
1 45746U 20038S   23031.07866412  .00001117  00000-0  93851-4 0  9992
2 45746  53.0539 285.5984 0001331  92.4553 267.6588 15.06402140145320
1 45746U 20038S   23031.07866412  .00001117  00000-0  93851-4 0  9992
2 45746  53.0539 285.5984 0001331  92.4553 267.6588 15.06402140146253
1 45746U 20038S   23031.74213153  .00000949  00000-0  82592-4 0  9996
2 45746  53.0539 282.6194 0001299  93.7574 266.3563 15.06402562145429
